ONEWEB-0607             
1 54671U 22166AF  25324.88546539  .00000033  00000+0  47626-4 0  9998
2 54671  87.9192 285.5169 0001803  87.1720 272.9620 13.21829074144020
ONEWEB-0608             
1 54672U 22166AG  25324.81637392  .00000797  00000+0  18990-2 0  9997
2 54672  87.9199 285.5168 0001341  92.7594 267.3693 13.21824354144029
ONEWEB-0610             
1 54673U 22166AH  25324.87231339 -.00000090  00000+0 -24893-3 0  9993
2 54673  87.9187 285.5402 0001437  98.4474 261.6823 13.21827054143935
ONEWEB-0611             
1 54674U 22166AJ  25324.63864676 -.00000034  00000+0 -11270-3 0  9997
2 54674  87.9189 285.5826 0002080  80.4804 279.6565 13.21824506143897
ONEWEB-0612             
1 54675U 22166AK  25324.87888965  .00000011  00000+0 -51913-5 0  9995
2 54675  87.9190 285.5136 0001776  85.6671 274.4666 13.21828175143918
ONEWEB-0615             
1 54676U 22166AL  25324.85914779  .00000014  00000+0  21881-5 0  9990
2 54676  87.9193 285.5439 0001896  82.6113 277.5236 13.21824084143922
ONEWEB-0655             
1 54677U 22166AM  25324.60736680  .00000118  00000+0  25358-3 0  9993
2 54677  87.9189 285.5993 0001994  91.2377 268.8986 13.21822994143888
ONEWEB-0659             
1 54678U 22166AN  25324.85090979  .00000055  00000+0  10220-3 0  9997
2 54678  87.9190 285.5506 0001892  79.5890 280.5457 13.21828717144005
